{
    "links": {
        "self": "http://www.neowsapp.com/rest/v1/neo/3771631?api_key=iIulBulltgU6a56xZRHN4H3l9WmuAYTsLGpBGhQ2"
    },
    "id": "3771631",
    "neo_reference_id": "3771631",
    "name": "(2017 FS2)",
    "designation": "2017 FS2",
    "nasa_jpl_url": "http://ssd.jpl.nasa.gov/sbdb.cgi?sstr=3771631",
    "absolute_magnitude_h": 23.0,
    "estimated_diameter": {
        "kilometers": {
            "estimated_diameter_min": 0.0667659413,
            "estimated_diameter_max": 0.1492931834
        },
        "meters": {
            "estimated_diameter_min": 66.7659413495,
            "estimated_diameter_max": 149.2931834393
        },
        "miles": {
            "estimated_diameter_min": 0.0414864197,
            "estimated_diameter_max": 0.0927664547
        },
        "feet": {
            "estimated_diameter_min": 219.0483710172,
            "estimated_diameter_max": 489.807047955
        }
    },
    "is_potentially_hazardous_asteroid": false,
    "close_approach_data": [
        {
            "close_approach_date": "2017-03-19",
            "close_approach_date_full": "2017-Mar-19 16:24",
            "epoch_date_close_approach": 1489940640000,
            "relative_velocity": {
                "kilometers_per_second": "8.5015953523",
                "kilometers_per_hour": "30605.7432683902",
                "miles_per_hour": "19017.2186436284"
            },
            "miss_distance": {
                "astronomical": "0.2910278986",
                "lunar": "113.2098525554",
                "kilometers": "43537153.741135982",
                "miles": "27052732.8828492716"
            },
            "orbiting_body": "Earth"
        }
    ],
    "orbital_data": {
        "orbit_id": "4",
        "orbit_determination_date": "2017-04-12 06:13:48",
        "first_observation_date": "2017-03-18",
        "last_observation_date": "2017-03-31",
        "data_arc_in_days": 13,
        "observations_used": 15,
        "orbit_uncertainty": "7",
        "minimum_orbit_intersection": ".285446",
        "jupiter_tisserand_invariant": "4.483",
        "epoch_osculation": "2459000.5",
        "eccentricity": ".1635327451558093",
        "semi_major_axis": "1.500677763928779",
        "inclination": "16.60746284991946",
        "ascending_node_longitude": "13.50760448882492",
        "orbital_period": "671.4746138134303",
        "perihelion_distance": "1.255267809599224",
        "perihelion_argument": "141.2958073764102",
        "aphelion_distance": "1.746087718258334",
        "perihelion_time": "2459146.570747397150",
        "mean_anomaly": "281.6865865347742",
        "mean_motion": ".5361334480770501",
        "equinox": "J2000",
        "orbit_class": {
            "orbit_class_type": "AMO",
            "orbit_class_description": "Near-Earth asteroid orbits similar to that of 1221 Amor",
            "orbit_class_range": "1.017 AU < q (perihelion) < 1.3 AU"
        }
    },
    "is_sentry_object": false
}